NORAD_CAT_ID,OBJECT_NAME,OBJECT_TYPE,EPOCH,MEAN_MOTION,ECCENTRICITY,INCLINATION,RA_OF_ASC_NODE,ARG_OF_PERICENTER,MEAN_ANOMALY,BSTAR,MEAN_MOTION_DOT,MEAN_MOTION_DDOT,TLE_LINE0,TLE_LINE1,TLE_LINE2,SEMIMAJOR_AXIS,PERIOD,APOGEE,PERIGEE,DECAYED
50822.0,STARLINK-3343,PAYLOAD,2022-02-04 10:32:53,15.7321441,0.0002619,53.217,57.786,29.5164,330.6003,4.2128e-05,5.298e-05,0.0,0 STARLINK-3343,1 50822U 22001V   22035.43950864  .00005298  00000-0  42128-4 0  9998,2 50822  53.2170  57.7860 0002619  29.5164 330.6003 15.73214410  5777,6727.854,91.532,351.481,347.957,0.0
50822.0,STARLINK-3343,PAYLOAD,2022-02-04 18:10:17,15.73207959,0.0002355,53.2156,56.2128,38.5822,321.5366,2.8034e-05,3.316e-05,0.0,0 STARLINK-3343,1 50822U 22001V   22035.75715074  .00003316  00000-0  28034-4 0  9994,2 50822  53.2156  56.2128 0002355  38.5822 321.5366 15.73207959  5827,6727.871999999999,91.533,351.32199999999995,348.153,0.0
50822.0,STARLINK-3343,PAYLOAD,2022-02-05 14:00:01,15.73175152,0.0002262,53.2149,52.1248,20.131,341.8692,0.00035405,0.00049311,0.0,0 STARLINK-3343,1 50822U 22001V   22036.58334491  .00049311  00000-0  35405-3 0  9990,2 50822  53.2149  52.1248 0002262  20.1310 341.8692 15.73175152  5953,6727.965999999999,91.535,351.353,348.309,0.0
50822.0,STARLINK-3343,PAYLOAD,2022-02-06 06:00:00,15.73193371,0.0002319,53.2153,48.8252,25.0714,154.7618,-0.00057416,-0.00080424,0.0,0 STARLINK-3343,1 50822U 22001V   22037.25001157 -.00080424  00000-0 -57416-3 0  9993,2 50822  53.2153  48.8252 0002319  25.0714 154.7618 15.73193371  6065,6727.9140000000025,91.534,351.339,348.219,0.0
50822.0,STARLINK-3343,PAYLOAD,2022-02-06 14:00:01,15.73142612,0.0002344,53.2148,47.176,22.6661,246.1007,0.00025985,0.00035917,0.0,0 STARLINK-3343,1 50822U 22001V   22037.58335648  .00035917  00000-0  25985-3 0  9995,2 50822  53.2148  47.1760 0002344  22.6661 246.1007 15.73142612  3693,6728.059,91.537,351.501,348.347,0.0
50822.0,STARLINK-3343,PAYLOAD,2022-02-06 20:00:01,15.73137375,0.0002133,53.2151,45.9375,25.498,219.8584,0.00054826,0.00076828,0.0,0 STARLINK-3343,1 50822U 22001V   22037.83334491  .00076828  00000-0  54826-3 0  9990,2 50822  53.2151  45.9375 0002133  25.4980 219.8584 15.73137375  6157,6728.074000000001,91.537,351.374,348.504,0.0
50822.0,STARLINK-3343,PAYLOAD,2022-02-06 22:00:00,15.73139637,0.0002096,53.215,45.5248,27.2483,330.3284,0.00066506,0.00093523,0.0,0 STARLINK-3343,1 50822U 22001V   22037.91667824  .00093523  00000-0  66506-3 0  9997,2 50822  53.2150  45.5248 0002096  27.2483 330.3284 15.73139637  3692,6728.066999999999,91.537,351.342,348.522,0.0
50822.0,STARLINK-3343,PAYLOAD,2022-02-07 14:00:01,15.73274196,0.0002303,53.2154,42.2277,24.8308,150.5809,-0.00044221,-0.00062429,0.0,0 STARLINK-3343,1 50822U 22001V   22038.58334491 -.00062429  00000-0 -44221-3 0  9995,2 50822  53.2154  42.2277 0002303  24.8308 150.5809 15.73274196  3686,6727.684,91.529,351.098,347.999,0.0
50822.0,STARLINK-3343,PAYLOAD,2022-02-07 16:00:00,15.73286861,0.0002226,53.2156,41.8146,24.7992,262.8571,-0.00074593,-0.00104419,0.0,0 STARLINK-3343,1 50822U 22001V   22038.66667824 -.00104419  00000-0 -74593-3 0  9994,2 50822  53.2156  41.8146 0002226  24.7992 262.8571 15.73286861  6284,6727.648,91.528,351.01,348.015,0.0
50822.0,STARLINK-3343,PAYLOAD,2022-02-07 22:00:00,15.73207712,0.0002132,53.2156,40.5762,27.0727,237.3316,4.5043e-05,5.707e-05,0.0,0 STARLINK-3343,1 50822U 22001V   22038.91667824  .00005707  00000-0  45043-4 0  9999,2 50822  53.2156  40.5762 0002132  27.0727 237.3316 15.73207712  3708,6727.873000000001,91.533,351.173,348.30400000000014,0.0
50822.0,STARLINK-3343,PAYLOAD,2022-02-08 06:00:00,15.73194396,0.0002447,53.2156,38.9284,30.9372,322.4112,-2.073900000000001e-05,-3.531e-05,0.0,0 STARLINK-3343,1 50822U 22001V   22039.25001157 -.00003531  00000-0 -20739-4 0  9998,2 50822  53.2156  38.9284 0002447  30.9372 322.4112 15.73194396  6375,6727.911,91.534,351.422,348.13,0.0
50822.0,STARLINK-3343,PAYLOAD,2022-02-08 14:00:01,15.73214253,0.0002461,53.2151,37.2788,30.1548,52.1076,0.00014798,0.00020211,0.0,0 STARLINK-3343,1 50822U 22001V   22039.58334491  .00020211  00000-0  14798-3 0  9993,2 50822  53.2151  37.2788 0002461  30.1548  52.1076 15.73214253  3709,6727.855,91.532,351.375,348.064,0.0
50822.0,STARLINK-3343,PAYLOAD,2022-02-08 20:00:01,15.73227581,0.0002189,53.2152,36.0402,31.7019,27.341,3.5644e-05,4.39e-05,0.0,0 STARLINK-3343,1 50822U 22001V   22039.83335648  .00004390  00000-0  35644-4 0  9990,2 50822  53.2152  36.0402 0002189  31.7019  27.3410 15.73227581  6478,6727.816999999999,91.532,351.154,348.209,0.0
50822.0,STARLINK-3343,PAYLOAD,2022-02-08 22:00:01,15.73246719,0.0002133,53.2152,35.6276,32.8529,138.4256,-0.00027803,-0.0003954,0.0,0 STARLINK-3343,1 50822U 22001V   22039.91668981 -.00039540  00000-0 -27803-3 0  9992,2 50822  53.2152  35.6276 0002133  32.8529 138.4256 15.73246719  3696,6727.762,91.53,351.06199999999984,348.19199999999995,0.0
50822.0,STARLINK-3343,PAYLOAD,2022-02-09 14:00:01,15.73187745,0.000221,53.2155,32.3302,21.7186,327.3946,0.00013124,0.00017828,0.0,0 STARLINK-3343,1 50822U 22001V   22040.58334491  .00017828  00000-0  13124-3 0  9997,2 50822  53.2155  32.3302 0002210  21.7186 327.3946 15.73187745  6584,6727.93,91.534,351.282,348.30800000000005,0.0
50822.0,STARLINK-3343,PAYLOAD,2022-02-10 14:00:01,15.73223561,0.0002172,53.2151,27.3812,21.3034,234.6625,8.6263e-05,0.00011515,0.0,0 STARLINK-3343,1 50822U 22001V   22041.58335648  .00011515  00000-0  86263-4 0  9995,2 50822  53.2151  27.3812 0002172  21.3034 234.6625 15.73223561  6744,6727.828,91.532,351.154,348.232,0.0
50822.0,STARLINK-3343,PAYLOAD,2022-02-10 22:00:00,15.73242736,0.0001998,53.2154,25.7303,28.518,316.3431,-0.00014496,-0.00020954,0.0,0 STARLINK-3343,1 50822U 22001V   22041.91667824 -.00020954  00000-0 -14496-3 0  9993,2 50822  53.2154  25.7303 0001998  28.5180 316.3431 15.73242736  3688,6727.773,91.531,350.983,348.2940000000001,0.0
50822.0,STARLINK-3343,PAYLOAD,2022-02-11 14:00:01,15.732797,0.0002208,53.2156,22.4323,28.3829,134.4556,-0.0007005,-0.00098139,0.0,0 STARLINK-3343,1 50822U 22001V   22042.58334491 -.00098139  00000-0 -70050-3 0  9996,2 50822  53.2156  22.4323 0002208  28.3829 134.4556 15.73279700  3700,6727.668000000002,91.529,351.01800000000014,348.047,0.0
50822.0,STARLINK-3343,PAYLOAD,2022-02-11 22:00:01,15.73205848,0.0002089,53.2159,20.7811,34.5377,217.3388,0.00054758,0.00076959,0.0,0 STARLINK-3343,1 50822U 22001V   22042.91668981  .00076959  00000-0  54758-3 0  9998,2 50822  53.2159  20.7811 0002089  34.5377 217.3388 15.73205848  6956,6727.879,91.533,351.149,348.338,0.0
50822.0,STARLINK-3343,PAYLOAD,2022-02-11 22:27:32,15.73248766,0.0002207,53.2158,20.688,34.6293,325.4871,0.00010716,0.00014476,0.0,0 STARLINK-3343,1 50822U 22001V   22042.93579198  .00014476  00000-0  10716-3 0  9993,2 50822  53.2158  20.6880 0002207  34.6293 325.4871 15.73248766  5717,6727.755999999999,91.53,351.106,348.136,0.0
50822.0,STARLINK-3343,PAYLOAD,2022-02-12 04:33:27,15.73238615,0.0002347,53.2158,19.4295,31.4027,328.7133,2.3229e-05,2.645e-05,0.0,0 STARLINK-3343,1 50822U 22001V   22043.18989829  .00002645  00000-0  23229-4 0  9996,2 50822  53.2158  19.4295 0002347  31.4027 328.7133 15.73238615  6998,6727.785,91.531,351.22900000000016,348.071,0.0
50822.0,STARLINK-3343,PAYLOAD,2022-02-12 14:00:01,15.73143771,0.0002057,53.2153,17.4831,23.2649,46.4342,-0.00058829,-0.00082193,0.0,0 STARLINK-3343,1 50822U 22001V   22043.58334491 -.00082193  00000-0 -58829-3 0  9990,2 50822  53.2153  17.4831 0002057  23.2649  46.4342 15.73143771  3704,6728.055,91.536,351.30400000000014,348.537,0.0
50822.0,STARLINK-3343,PAYLOAD,2022-02-12 22:00:00,15.7304006,0.0001974,53.2156,15.8329,32.6547,125.841,0.0013228,0.0018795,0.0,0 STARLINK-3343,1 50822U 22001V   22043.91667824  .00187950  00000-0  13228-2 0  9994,2 50822  53.2156  15.8329 0001974  32.6547 125.8410 15.73040060  3692,6728.351,91.542,351.5440000000001,348.88800000000015,0.0
50822.0,STARLINK-3343,PAYLOAD,2022-02-13 04:00:01,15.73188167,0.0002195,53.2154,14.5975,31.711,103.439,-7.9718e-05,-0.00011789,0.0,0 STARLINK-3343,1 50822U 22001V   22044.16668981 -.00011789  00000-0 -79718-4 0  9993,2 50822  53.2154  14.5975 0002195  31.7110 103.4390 15.73188167  7150,6727.929,91.534,351.271,348.31699999999995,0.0
50822.0,STARLINK-3343,PAYLOAD,2022-02-13 14:00:01,15.73173423,0.0002043,53.2157,12.5349,27.5683,308.6721,0.00023074,0.0003185,0.0,0 STARLINK-3343,1 50822U 22001V   22044.58334491  .00031850  00000-0  23074-3 0  9997,2 50822  53.2157  12.5349 0002043  27.5683 308.6721 15.73173423  3709,6727.971,91.535,351.21,348.461,0.0
50822.0,STARLINK-3343,PAYLOAD,2022-02-13 22:00:00,15.73192054,0.0001979,53.2162,10.8843,32.2304,32.899,0.00048007,0.00067275,0.0,0 STARLINK-3343,1 50822U 22001V   22044.91667824  .00067275  00000-0  48007-3 0  9996,2 50822  53.2162  10.8843 0001979  32.2304  32.8990 15.73192054  7276,6727.918000000002,91.534,351.11400000000015,348.451,0.0
50822.0,STARLINK-3343,PAYLOAD,2022-02-14 06:00:00,15.73233247,0.0002207,53.2163,9.2368,27.7113,126.3612,-0.00029274,-0.00041566,0.0,0 STARLINK-3343,1 50822U 22001V   22045.25001157 -.00041566  00000-0 -29274-3 0  9997,2 50822  53.2163   9.2368 0002207  27.7113 126.3612 15.73233247  7329,6727.8,91.531,351.15,348.181,0.0
50822.0,STARLINK-3343,PAYLOAD,2022-02-14 12:00:02,15.72995576,0.0001966,53.2167,8.0001,27.7016,103.2156,0.0018016,0.00257876,0.0,0 STARLINK-3343,1 50822U 22001V   22045.50002315  .00257876  00000-0  18016-2 0  9994,2 50822  53.2167   8.0001 0001966  27.7016 103.2156 15.72995576  7367,6728.478,91.545,351.666,349.02,0.0
50822.0,STARLINK-3343,PAYLOAD,2022-02-14 14:00:01,15.72996165,0.0001872,53.2171,7.5875,29.1029,213.9445,0.0022404,0.00323387,0.0,0 STARLINK-3343,1 50822U 22001V   22045.58334491  .00323387  00000-0  22404-2 0  9992,2 50822  53.2171   7.5875 0001872  29.1029 213.9445 15.72996165  3700,6728.476,91.545,351.601,349.082,0.0
